#aV2008  9 14  0  0   .00000000      96 DD+AD WGS84 FIT  NGA
## 1497       .00000000   900.00000000 54723  .0000000000000
+   31     2  3  4  5  6  7  8  9 10 11 12 13 14 15 16 17 18
+         19 20 21 22 23 24 25 26 27 28 29 30 31 32  0  0  0
+          0  0  0  0  0  0  0  0  0  0  0  0  0  0  0  0  0
+          0  0  0  0  0  0  0  0  0  0  0  0  0  0  0  0  0
+          0  0  0  0  0  0  0  0  0  0  0  0  0  0  0  0  0
++         0  0  0  0  0  0  0  0  0  0  0  0  0  0  0  0  0
++         0  0  0  0  0  0  0  0  0  0  0  0  0  0  0  0  0
++         0  0  0  0  0  0  0  0  0  0  0  0  0  0  0  0  0
++         0  0  0  0  0  0  0  0  0  0  0  0  0  0  0  0  0
++         0  0  0  0  0  0  0  0  0  0  0  0  0  0  0  0  0
%c cc cc ccc ccc cccc cccc cccc cccc ccccc ccccc ccccc ccccc
%c cc cc ccc ccc cccc cccc cccc cccc ccccc ccccc ccccc ccccc
%f  0.0000000  0.000000000  0.00000000000  0.000000000000000
%f  0.0000000  0.000000000  0.00000000000  0.000000000000000
%i    0    0    0    0      0      0      0      0         0
%i    0    0    0    0      0      0      0      0         0
/*      NGA, ST. LOUIS,MO.                                  
/*   EPHEMERIS COMPUTED FROM  3 DAYS OF DATA                
/* CCCCCCCCCCCCCCCCCCCCCCCCCCCCCCCCCCCCCCCCCCCCCCCCCCCCCCCCC
/* CCCCCCCCCCCCCCCCCCCCCCCCCCCCCCCCCCCCCCCCCCCCCCCCCCCCCCCCC
*  2008  9 14 16 15   .00000000                                                 
P  2 -17247.798226  13516.499411  14608.049251    187.442267                    
V  2 -19184.016940    278.818416 -23060.697484      -.028259                    
P  3  10598.152955 -23480.345142   5362.753089    283.396212                    
V  3   2054.672442   8090.863654  30182.727804       .051020                    
P  4 -25718.728729   6343.753284   3682.154532   -171.176919                    
V  4  -5149.972499  -2367.212695 -30634.035226      -.109957                    
P  5  14333.316918  21603.095892  -6374.734402    -36.891433                    
V  5  -7553.131190  -3439.216875 -29883.191006     -2.057143                    
P  6  14359.232135 -20376.335561   9362.888548    166.427095                    
V  6   -737.455936  12092.219655  28012.699267      -.014968                    
P  7 -19497.787234  -8331.702294  16027.130096     17.080555                    
V  7  19866.748177  -4802.548095  21536.642574       .025160                    
P  8 -26327.459026   -853.665284   4999.334340   -170.001450                    
V  8   6168.243008  -2193.262832  31128.915543      -.016313                    
P  9   3414.075474  14876.878127 -22383.122077     14.908383                    
V  9 -26385.145073   4924.159233   -651.171688       .018409                    
P 10  -6262.154260  15418.487763  20487.670007     -4.853001                    
V 10 -16784.326418 -20413.602808  10485.220880      -.004884                    
P 11  -6862.331319 -15352.921664 -20734.075936     19.858051                    
V 11  24697.715088  -8981.341865  -1189.691299      -.006644                    
P 12   8702.914997  22789.522435 -10543.980722   -350.963636                    
V 12 -10166.387085  -9127.375105 -27817.112962       .015073                    
P 13  -9254.278990 -12865.279635  21196.625331    271.093463                    
V 13  11652.960596 -24470.047394  -9707.264582       .012394                    
P 14  16764.971096  -6948.466184 -19242.990012   -219.827594                    
V 14  -8811.011935  23027.103888 -16012.581801       .046811                    
P 15  -6076.186164  25405.178937  -4736.081608   -177.250759                    
V 15  -4826.743958   4641.990552  30933.923198      -.064907                    
P 16  10972.322544 -10494.857374  21842.322538    106.978398                    
V 16  16958.545434  21759.653115   2146.076515      -.020413                    
P 17 -17105.578212   6282.409854 -19217.886474     38.939649                    
V 17   7985.577639 -23264.474351 -14849.036816       .001328                    
P 18  19438.153748  16369.730760  -8146.547114   -133.974799                    
V 18   4026.954137  10129.827542  28867.779322       .040779                    
P 19   6982.599074 -24731.879638  -6190.185774     35.426970                    
V 19   6135.452678  -5943.415866  30501.046483       .001660                    
P 20 -11760.215277 -22673.068134  -7467.400627    104.658946                    
V 20   8310.095062   5252.286982 -29443.713158      -.010742                    
P 21  23456.129231   5863.340256  11876.596826     50.641616                    
V 21 -14161.540194   4318.031583  25688.778370      -.014869                    
P 22  19120.170600   4297.320274 -17793.258287    210.939890                    
V 22  12024.115085  19639.476571  17440.270969      -.004249                    
P 23  -2864.690252 -21264.385198  15417.675096    373.126037                    
V 23   9125.035543 -17642.611543 -22814.559761       .014459                    
P 24  10291.083766  13616.115884  20442.760165    125.222429                    
V 24 -25466.550200   3654.076616  10739.130340       .030455                    
P 25 -12972.298351 -11370.152206  20503.439971   -170.988614                    
V 25  24288.707427  -7069.085650  11822.855484       .480053                    
P 26 -10069.931103  24246.736679  -1199.414885    325.488067                    
V 26  -2394.096635    -52.501022  32785.546659       .055672                    
P 27 -21655.284547  -5886.050879  14976.566130    217.573517                    
V 27  17062.498323  -5228.208966  23585.862785       .028028                    
P 28 -19346.745109  -6291.076790 -16859.676658    -22.484408                    
V 28 -11934.023992 -18587.234975  19835.845446      -.002090                    
P 29   8213.369925  16000.150796  19665.455514    -37.578533                    
V 29 -10651.866220  22342.323760 -13775.123383       .010739                    
P 30  18492.889976  18958.246719   2226.817526     96.610087                    
V 30   -227.334049   4496.253557 -31274.838259       .020124                    
P 31  24134.353381  -8734.761466   7241.233811    -26.371565                    
V 31   9136.097405    918.685845 -30087.421315      -.022595                    
P 32  -4725.407313 -22762.302697 -12584.830856    316.192535                    
V 32  10958.361443  12641.487384 -25904.975557       .005462                    
EOF
